[{"OBJECT_NAME":"GAOFEN-9 05","OBJECT_ID":"2020-058A","EPOCH":"2026-03-10T00:01:50.876256","MEAN_MOTION":15.30293976,"ECCENTRICITY":0.0010522,"INCLINATION":97.2228,"RA_OF_ASC_NODE":111.963,"ARG_OF_PERICENTER":91.0204,"MEAN_ANOMALY":269.2242,"EPHEMERIS_TYPE":0,"CLASSIFICATION_TYPE":"U","NORAD_CAT_ID":46232,"ELEMENT_SET_NO":999,"REV_AT_EPOCH":30843,"BSTAR":0.00025120304,"MEAN_MOTION_DOT":7.299e-5,"MEAN_MOTION_DDOT":0},{"OBJECT_NAME":"STARLINK-35817","OBJECT_ID":"2025-254K","EPOCH":"2026-03-09T17:59:35.507328","MEAN_MOTION":15.30200243,"ECCENTRICITY":9.873e-5,"INCLINATION":53.1569,"RA_OF_ASC_NODE":232.2608,"ARG_OF_PERICENTER":91.844,"MEAN_ANOMALY":268.2674,"EPHEMERIS_TYPE":0,"CLASSIFICATION_TYPE":"U","NORAD_CAT_ID":66357,"ELEMENT_SET_NO":999,"REV_AT_EPOCH":1898,"BSTAR":0.00080782961,"MEAN_MOTION_DOT":0.00023643,"MEAN_MOTION_DDOT":0}]
